STARLINK-36840          
1 67850U 26034A   26061.91668981  .00048169  00000+0  24653-3 0  9994
2 67850  53.1610 245.3036 0001085  56.0385  16.7645 15.80845867  2821
STARLINK-36348          
1 67851U 26034B   26061.91668981  .00044262  00000+0  22689-3 0  9992
2 67851  53.1586 245.2938 0001084  54.6264  22.4497 15.80848914  2772
STARLINK-36276          
1 67852U 26034C   26061.91668981  .00093437  00000+0  47294-3 0  9990
2 67852  53.1586 245.2851 0001413  54.0415  27.3075 15.80821762  2773
STARLINK-36785          
1 67853U 26034D   26061.91668981  .00071657  00000+0  36428-3 0  9998
2 67853  53.1588 245.2761 0001330  50.7160  34.9105 15.80830598  2779
STARLINK-36608          
1 67854U 26034E   26061.91668981  .00056755  00000+0  28977-3 0  9991
2 67854  53.1581 245.2669 0001130  58.9597  30.9494 15.80830062  2775
STARLINK-36838          
1 67855U 26034F   26061.91668981  .00072597  00000+0  36918-3 0  9998
2 67855  53.1583 245.2581 0001426  44.3720  49.8142 15.80818505  2773
STARLINK-36843          
1 67856U 26034G   26061.91668981  .00032139  00000+0  16592-3 0  9993
2 67856  53.1583 245.2406 0001180  64.1136  38.6022 15.80853134  2778
STARLINK-36828          
1 67857U 26034H   26061.91668981  .00100185  00000+0  50636-3 0  9998
2 67857  53.1581 245.2499 0001183  57.6355  40.8053 15.80825443  2773
STARLINK-36837          
1 67858U 26034J   26061.91668981  .00094634  00000+0  47913-3 0  9994
2 67858  53.1581 245.2310 0001483  76.0526  30.9501 15.80810121  2779
STARLINK-36393          
1 67859U 26034K   26061.91668981  .00047631  00000+0  24404-3 0  9990
2 67859  53.1583 245.2226 0000934  33.4533  77.8120 15.80827311  2779
STARLINK-35873          
1 67860U 26034L   26061.91668981  .00085924  00000+0  43596-3 0  9992
2 67860  53.1601 245.2138 0000908  83.0535  32.4989 15.80802832  2915
STARLINK-36325          
1 67861U 26034M   26061.91668981  .00019829  00000+0  10380-3 0  9999
2 67861  53.1583 245.2047 0001250  58.4248  61.3620 15.80866357  2771
STARLINK-36332          
1 67862U 26034N   26061.91668981  .00059445  00000+0  30292-3 0  9992
2 67862  53.1572 245.1961 0001015  69.8548  54.2154 15.80852869  2778
STARLINK-36835          
1 67863U 26034P   26061.91668981  .00004934  00000+0  28503-4 0  9999
2 67863  53.1573 245.1862 0001118  73.0964  55.2153 15.80890697  2774
STARLINK-36831          
1 67864U 26034Q   26061.91668981 -.00092193  00000+0 -46758-3 0  9997
2 67864  53.1568 245.1776 0000985  55.4332  77.1665 15.80917368  2773
STARLINK-36738          
1 67865U 26034R   26061.91668981 -.00183756  00000+0 -94426-3 0  9999
2 67865  53.1566 245.1685 0001420  50.6749  86.2129 15.80942372  2774
