[{"OBJECT_NAME":"STARLINK-36840","OBJECT_ID":"2026-034A","EPOCH":"2026-03-02T22:00:01.999584","MEAN_MOTION":15.80845867,"ECCENTRICITY":0.00010854,"INCLINATION":53.161,"RA_OF_ASC_NODE":245.3036,"ARG_OF_PERICENTER":56.0385,"MEAN_ANOMALY":16.7645,"EPHEMERIS_TYPE":0,"CLASSIFICATION_TYPE":"U","NORAD_CAT_ID":67850,"ELEMENT_SET_NO":999,"REV_AT_EPOCH":282,"BSTAR":0.00024653205,"MEAN_MOTION_DOT":0.00048169,"MEAN_MOTION_DDOT":0},{"OBJECT_NAME":"STARLINK-36348","OBJECT_ID":"2026-034B","EPOCH":"2026-03-02T22:00:01.999584","MEAN_MOTION":15.80848914,"ECCENTRICITY":0.00010847,"INCLINATION":53.1586,"RA_OF_ASC_NODE":245.2938,"ARG_OF_PERICENTER":54.6264,"MEAN_ANOMALY":22.4497,"EPHEMERIS_TYPE":0,"CLASSIFICATION_TYPE":"U","NORAD_CAT_ID":67851,"ELEMENT_SET_NO":999,"REV_AT_EPOCH":277,"BSTAR":0.00022689115,"MEAN_MOTION_DOT":0.00044262,"MEAN_MOTION_DDOT":0},{"OBJECT_NAME":"STARLINK-36276","OBJECT_ID":"2026-034C","EPOCH":"2026-03-02T22:00:01.999584","MEAN_MOTION":15.80821762,"ECCENTRICITY":0.0001413,"INCLINATION":53.1586,"RA_OF_ASC_NODE":245.2851,"ARG_OF_PERICENTER":54.0415,"MEAN_ANOMALY":27.3075,"EPHEMERIS_TYPE":0,"CLASSIFICATION_TYPE":"U","NORAD_CAT_ID":67852,"ELEMENT_SET_NO":999,"REV_AT_EPOCH":277,"BSTAR":0.00047293562,"MEAN_MOTION_DOT":0.00093437,"MEAN_MOTION_DDOT":0},{"OBJECT_NAME":"STARLINK-36785","OBJECT_ID":"2026-034D","EPOCH":"2026-03-02T22:00:01.999584","MEAN_MOTION":15.80830598,"ECCENTRICITY":0.00013302,"INCLINATION":53.1588,"RA_OF_ASC_NODE":245.2761,"ARG_OF_PERICENTER":50.716,"MEAN_ANOMALY":34.9105,"EPHEMERIS_TYPE":0,"CLASSIFICATION_TYPE":"U","NORAD_CAT_ID":67853,"ELEMENT_SET_NO":999,"REV_AT_EPOCH":277,"BSTAR":0.00036428332,"MEAN_MOTION_DOT":0.00071657,"MEAN_MOTION_DDOT":0},{"OBJECT_NAME":"STARLINK-36608","OBJECT_ID":"2026-034E","EPOCH":"2026-03-02T22:00:01.999584","MEAN_MOTION":15.80830062,"ECCENTRICITY":0.00011304,"INCLINATION":53.1581,"RA_OF_ASC_NODE":245.2669,"ARG_OF_PERICENTER":58.9597,"MEAN_ANOMALY":30.9494,"EPHEMERIS_TYPE":0,"CLASSIFICATION_TYPE":"U","NORAD_CAT_ID":67854,"ELEMENT_SET_NO":999,"REV_AT_EPOCH":277,"BSTAR":0.00028976655,"MEAN_MOTION_DOT":0.00056755,"MEAN_MOTION_DDOT":0},{"OBJECT_NAME":"STARLINK-36838","OBJECT_ID":"2026-034F","EPOCH":"2026-03-02T22:00:01.999584","MEAN_MOTION":15.80818505,"ECCENTRICITY":0.00014266,"INCLINATION":53.1583,"RA_OF_ASC_NODE":245.2581,"ARG_OF_PERICENTER":44.372,"MEAN_ANOMALY":49.8142,"EPHEMERIS_TYPE":0,"CLASSIFICATION_TYPE":"U","NORAD_CAT_ID":67855,"ELEMENT_SET_NO":999,"REV_AT_EPOCH":277,"BSTAR":0.00036918329,"MEAN_MOTION_DOT":0.00072597,"MEAN_MOTION_DDOT":0},{"OBJECT_NAME":"STARLINK-36843","OBJECT_ID":"2026-034G","EPOCH":"2026-03-02T22:00:01.999584","MEAN_MOTION":15.80853134,"ECCENTRICITY":0.00011802,"INCLINATION":53.1583,"RA_OF_ASC_NODE":245.2406,"ARG_OF_PERICENTER":64.1136,"MEAN_ANOMALY":38.6022,"EPHEMERIS_TYPE":0,"CLASSIFICATION_TYPE":"U","NORAD_CAT_ID":67856,"ELEMENT_SET_NO":999,"REV_AT_EPOCH":277,"BSTAR":0.00016591533,"MEAN_MOTION_DOT":0.00032139,"MEAN_MOTION_DDOT":0},{"OBJECT_NAME":"STARLINK-36828","OBJECT_ID":"2026-034H","EPOCH":"2026-03-02T22:00:01.999584","MEAN_MOTION":15.80825443,"ECCENTRICITY":0.00011838,"INCLINATION":53.1581,"RA_OF_ASC_NODE":245.2499,"ARG_OF_PERICENTER":57.6355,"MEAN_ANOMALY":40.8053,"EPHEMERIS_TYPE":0,"CLASSIFICATION_TYPE":"U","NORAD_CAT_ID":67857,"ELEMENT_SET_NO":999,"REV_AT_EPOCH":277,"BSTAR":0.00050635645,"MEAN_MOTION_DOT":0.00100185,"MEAN_MOTION_DDOT":0},{"OBJECT_NAME":"STARLINK-36837","OBJECT_ID":"2026-034J","EPOCH":"2026-03-02T22:00:01.999584","MEAN_MOTION":15.80810121,"ECCENTRICITY":0.00014834,"INCLINATION":53.1581,"RA_OF_ASC_NODE":245.231,"ARG_OF_PERICENTER":76.0526,"MEAN_ANOMALY":30.9501,"EPHEMERIS_TYPE":0,"CLASSIFICATION_TYPE":"U","NORAD_CAT_ID":67858,"ELEMENT_SET_NO":999,"REV_AT_EPOCH":277,"BSTAR":0.00047913499,"MEAN_MOTION_DOT":0.00094634,"MEAN_MOTION_DDOT":0},{"OBJECT_NAME":"STARLINK-36393","OBJECT_ID":"2026-034K","EPOCH":"2026-03-02T22:00:01.999584","MEAN_MOTION":15.80827311,"ECCENTRICITY":9.341e-5,"INCLINATION":53.1583,"RA_OF_ASC_NODE":245.2226,"ARG_OF_PERICENTER":33.4533,"MEAN_ANOMALY":77.812,"EPHEMERIS_TYPE":0,"CLASSIFICATION_TYPE":"U","NORAD_CAT_ID":67859,"ELEMENT_SET_NO":999,"REV_AT_EPOCH":277,"BSTAR":0.00024404141,"MEAN_MOTION_DOT":0.00047631,"MEAN_MOTION_DDOT":0},{"OBJECT_NAME":"STARLINK-35873","OBJECT_ID":"2026-034L","EPOCH":"2026-03-02T22:00:01.999584","MEAN_MOTION":15.80802832,"ECCENTRICITY":9.08e-5,"INCLINATION":53.1601,"RA_OF_ASC_NODE":245.2138,"ARG_OF_PERICENTER":83.0535,"MEAN_ANOMALY":32.4989,"EPHEMERIS_TYPE":0,"CLASSIFICATION_TYPE":"U","NORAD_CAT_ID":67860,"ELEMENT_SET_NO":999,"REV_AT_EPOCH":291,"BSTAR":0.00043595537,"MEAN_MOTION_DOT":0.00085924,"MEAN_MOTION_DDOT":0},{"OBJECT_NAME":"STARLINK-36325","OBJECT_ID":"2026-034M","EPOCH":"2026-03-02T22:00:01.999584","MEAN_MOTION":15.80866357,"ECCENTRICITY":0.00012507,"INCLINATION":53.1583,"RA_OF_ASC_NODE":245.2047,"ARG_OF_PERICENTER":58.4248,"MEAN_ANOMALY":61.362,"EPHEMERIS_TYPE":0,"CLASSIFICATION_TYPE":"U","NORAD_CAT_ID":67861,"ELEMENT_SET_NO":999,"REV_AT_EPOCH":277,"BSTAR":0.00010380047,"MEAN_MOTION_DOT":0.00019829,"MEAN_MOTION_DDOT":0},{"OBJECT_NAME":"STARLINK-36332","OBJECT_ID":"2026-034N","EPOCH":"2026-03-02T22:00:01.999584","MEAN_MOTION":15.80852869,"ECCENTRICITY":0.00010156,"INCLINATION":53.1572,"RA_OF_ASC_NODE":245.1961,"ARG_OF_PERICENTER":69.8548,"MEAN_ANOMALY":54.2154,"EPHEMERIS_TYPE":0,"CLASSIFICATION_TYPE":"U","NORAD_CAT_ID":67862,"ELEMENT_SET_NO":999,"REV_AT_EPOCH":277,"BSTAR":0.00030292389,"MEAN_MOTION_DOT":0.00059445,"MEAN_MOTION_DDOT":0},{"OBJECT_NAME":"STARLINK-36835","OBJECT_ID":"2026-034P","EPOCH":"2026-03-02T22:00:01.999584","MEAN_MOTION":15.80890697,"ECCENTRICITY":0.00011189,"INCLINATION":53.1573,"RA_OF_ASC_NODE":245.1862,"ARG_OF_PERICENTER":73.0964,"MEAN_ANOMALY":55.2153,"EPHEMERIS_TYPE":0,"CLASSIFICATION_TYPE":"U","NORAD_CAT_ID":67863,"ELEMENT_SET_NO":999,"REV_AT_EPOCH":277,"BSTAR":2.8502585e-5,"MEAN_MOTION_DOT":4.934e-5,"MEAN_MOTION_DDOT":0},{"OBJECT_NAME":"STARLINK-36831","OBJECT_ID":"2026-034Q","EPOCH":"2026-03-02T22:00:01.999584","MEAN_MOTION":15.80917368,"ECCENTRICITY":9.853e-5,"INCLINATION":53.1568,"RA_OF_ASC_NODE":245.1776,"ARG_OF_PERICENTER":55.4332,"MEAN_ANOMALY":77.1665,"EPHEMERIS_TYPE":0,"CLASSIFICATION_TYPE":"U","NORAD_CAT_ID":67864,"ELEMENT_SET_NO":999,"REV_AT_EPOCH":277,"BSTAR":-0.00046758257,"MEAN_MOTION_DOT":-0.00092193,"MEAN_MOTION_DDOT":0},{"OBJECT_NAME":"STARLINK-36738","OBJECT_ID":"2026-034R","EPOCH":"2026-03-02T22:00:01.999584","MEAN_MOTION":15.80942372,"ECCENTRICITY":0.00014203,"INCLINATION":53.1566,"RA_OF_ASC_NODE":245.1685,"ARG_OF_PERICENTER":50.6749,"MEAN_ANOMALY":86.2129,"EPHEMERIS_TYPE":0,"CLASSIFICATION_TYPE":"U","NORAD_CAT_ID":67865,"ELEMENT_SET_NO":999,"REV_AT_EPOCH":277,"BSTAR":-0.00094425598,"MEAN_MOTION_DOT":-0.00183756,"MEAN_MOTION_DDOT":0}]
